SAUDISAT 1C             
1 27607U 02058C   22091.55907983  .00001057  00000+0  16715-3 0  9992
2 27607  64.5549 177.1828 0073470 309.6600  49.8035 14.75977836 37024
SAUDISAT 2              
1 28371U 04025F   22091.79179208  .00000410  00000+0  10692-3 0  9994
2 28371  98.3691  48.4196 0025389 343.2675  16.7683 14.54509147942149
SAUDISAT 3              
1 31118U 07012B   22091.82968547  .00000406  00000+0  76839-4 0  9993
2 31118  97.9614  40.7640 0016500  80.7610 279.5461 14.69278185801900
PISAT                   
1 41784U 16059B   22091.58435022  .00000894  00000+0  17894-3 0  9990
2 41784  97.9259 137.8945 0032859  54.3649 306.0607 14.63798327294447
FLYING LAPTOP           
1 42831U 17042G   22091.65640939  .00000824  00000+0  87269-4 0  9997
2 42831  97.4343 310.5436 0012289 264.9503  95.0319 14.91595123256643
SALSAT                  
1 46495U 20068K   22091.53526146  .00003452  00000+0  25324-3 0  9992
2 46495  97.7225  32.8686 0016766 172.6475 187.4999 15.04066332 82628